CCSDS_OMM_VERS,COMMENT,CREATION_DATE,ORIGINATOR,OBJECT_NAME,OBJECT_ID,CENTER_NAME,REF_FRAME,TIME_SYSTEM,MEAN_ELEMENT_THEORY,EPOCH,MEAN_MOTION,ECCENTRICITY,INCLINATION,RA_OF_ASC_NODE,ARG_OF_PERICENTER,MEAN_ANOMALY,EPHEMERIS_TYPE,CLASSIFICATION_TYPE,NORAD_CAT_ID,ELEMENT_SET_NO,REV_AT_EPOCH,BSTAR,MEAN_MOTION_DOT,MEAN_MOTION_DDOT,SEMIMAJOR_AXIS,PERIOD,APOAPSIS,PERIAPSIS,OBJECT_TYPE,RCS_SIZE,COUNTRY_CODE,LAUNCH_DATE,SITE,DECAY_DATE,FILE,GP_ID,TLE_LINE0,TLE_LINE1,TLE_LINE2,NORAD_KEY,JCAT,DeepCat,Satcat,Piece,Active,Type,Name,LDate,Parent,Owner,State,SDate,ExpandedStatus,DDate,ODate,Period,Perigee,PF,Apogee,AF,Inc,IF,OpOrbit,SATCAT_KEY,DENSITY_SCORE
3.0,GENERATED VIA SPACE-TRACK.ORG API,2026-05-06T10:08:52,18 SPCS,GSTAR 1,1985-035A,EARTH,TEME,UTC,SGP4,2026-05-06T04:04:57.187776,1.00272506,0.00037791,14.338,349.0416,92.7652,98.3576,0,U,15677,999,12478,0.0,-1.09e-06,0.0,42164.53,1436.087,35802.329,35770.461,PAYLOAD,LARGE,US,1985-05-08,FRGUI,,5176958,322262944,0 GSTAR 1,1 15677U 85035A   26126.17010634 -.00000109  00000-0  00000-0 0  9997,2 15677  14.3380 349.0416 0003779  92.7652  98.3576  1.00272506124784,15677,S15677,-,15677,1985-035A,P,P,Gstar 1,1985 May  8,S15680,SESSAP,US,1985 May  8 0134,In Earth orbit,-,2026 May  4 ,1436.087,35770, ,35802, ,14.34, ,GEO/I,15677,1.661211411120533
3.0,GENERATED VIA SPACE-TRACK.ORG API,2026-05-06T10:08:52,18 SPCS,INSAT 3C,2002-002A,EARTH,TEME,UTC,SGP4,2026-05-05T23:37:25.774176,0.99300435,0.00097534,8.3474,63.9629,151.3537,39.4912,0,U,27298,999,8867,0.0,6.7e-07,0.0,42439.254,1450.145,36102.511,36019.726,PAYLOAD,LARGE,IND,2002-01-23,FRGUI,,5176958,322266216,0 INSAT 3C,1 27298U 02002A   26125.98432609  .00000067  00000-0  00000-0 0  9992,2 27298   8.3474  63.9629 0009753 151.3537  39.4912  0.99300435 88670,27298,S27298,-,27298,2002-002A,P,P,Insat 3C,2002 Jan 23,S27299,ISRO,IN,2002 Jan 24 0007,In Earth orbit,-,2026 May  4 ,1450.151,36019, ,36102, ,8.35, ,GEO/ID,27298,1.6638310349553382
3.0,GENERATED VIA SPACE-TRACK.ORG API,2026-05-06T14:46:56,18 SPCS,INTELSAT 507,1983-105A,EARTH,TEME,UTC,SGP4,2026-05-06T10:19:56.444160,0.99697798,0.0004494,12.0202,331.4255,83.1558,93.913,0,U,14421,999,13681,0.0,-3.48e-06,0.0,42326.413,1444.365,35967.299,35929.256,PAYLOAD,LARGE,ITSO,1983-10-19,FRGUI,,5177259,322300095,0 INTELSAT 507,1 14421U 83105A   26126.43051440 -.00000348  00000-0  00000+0 0  9992,2 14421  12.0202 331.4255 0004494  83.1558  93.9130  0.99697798136813,14421,S14421,-,14421,1983-105A,P,P,INTELSAT 507,1983 Oct 19,S14423,SESINTU,US,1983 Oct 19 0101,In Earth orbit,-,2026 May  4 ,1444.355,35929, ,35967, ,12.02, ,GEO/ID,14421,1.6653429656612382
3.0,GENERATED VIA SPACE-TRACK.ORG API,2026-05-06T02:32:52,18 SPCS,GALAXY 9,1996-033A,EARTH,TEME,UTC,SGP4,2026-05-05T21:24:33.360192,0.99534933,0.00074844,12.0112,32.7786,174.787,55.8743,0,U,23877,999,4593,0.0,6e-08,0.0,42372.572,1446.728,36026.15,35962.723,PAYLOAD,LARGE,US,1996-05-24,AFETR,,5176277,322215960,0 GALAXY 9,1 23877U 96033A   26125.89205278  .00000006  00000-0  00000-0 0  9991,2 23877  12.0112  32.7786 0007484 174.7870  55.8743  0.99534933 45934,23877,S23877,-,23877,1996-033A,P,P,Galaxy 9,1996 May 24,S23879,SESINTU,US,1996 May 24 0231,In Earth orbit,-,2026 May  3 ,1446.724,35962, ,36026, ,12.01, ,GEO/ID,23877,1.6677375433686301
3.0,GENERATED VIA SPACE-TRACK.ORG API,2026-05-06T14:56:52,18 SPCS,NIMIQ 1,1999-027A,EARTH,TEME,UTC,SGP4,2026-05-06T13:16:22.463328,0.9858184,0.0012949,6.52,71.2859,306.6164,233.6128,0,U,25740,999,9836,0.0,-1.37e-06,0.0,42645.24,1460.715,36322.326,36211.884,PAYLOAD,LARGE,CA,1999-05-20,TTMTR,,5177570,322307553,0 NIMIQ 1,1 25740U 99027A   26126.55303777 -.00000137  00000-0  00000+0 0  9990,2 25740   6.5200  71.2859 0012949 306.6164 233.6128  0.98581840 98360,25740,S25740,-,25740,1999-027A,P,P,Nimiq 1,1999 May 20,S25743,TCANL,CA,1999 May 21 0512,In Earth orbit,-,2026 May  5 ,1460.723,36211, ,36322, ,6.52, ,GEO/ID,25740,1.6695351068821065
3.0,GENERATED VIA SPACE-TRACK.ORG API,2026-05-06T14:56:52,18 SPCS,SATCOM 3R,1981-114A,EARTH,TEME,UTC,SGP4,2026-05-06T12:47:53.574144,1.00097423,0.0004781,12.1383,332.1938,338.432,340.9764,0,U,12967,999,12764,0.0,3.8e-07,0.0,42213.683,1438.598,35855.73,35815.366,PAYLOAD,LARGE,US,1981-11-20,AFETR,,5177365,322301933,0 SATCOM 3R,1 12967U 81114A   26126.53325896  .00000038  00000-0  00000+0 0  9998,2 12967  12.1383 332.1938 0004781 338.4320 340.9764  1.00097423127646,12967,S12967,-,12967,1981-114A,P,P      M,Satcom 3R,1981 Nov 20,S13098,SESSAP,US,1981 Nov 20 0201,In Earth orbit,-,2026 May  4 ,1438.605,35815, ,35855, ,12.14, ,GEO/ID,12967,1.6710389026456147
3.0,GENERATED VIA SPACE-TRACK.ORG API,2026-05-06T14:56:52,18 SPCS,CHINASAT 22A,2006-038A,EARTH,TEME,UTC,SGP4,2026-05-06T10:39:54.336096,1.00092518,0.0001275,11.4194,37.701,60.3674,125.5436,0,U,29398,999,7196,0.0,1.09e-06,0.0,42215.062,1438.669,35842.309,35831.545,PAYLOAD,LARGE,PRC,2006-09-12,XSC,,5177651,322309663,0 CHINASAT 22A,1 29398U 06038A   26126.44437889  .00000109  00000-0  00000+0 0  9991,2 29398  11.4194  37.7010 0001275  60.3674 125.5436  1.00092518 71967,29398,S29398,-,29398,2006-038A,P,P,Zhongxing 22A,2006 Sep 12,S29399,JHB,CN,2006 Sep 12 1627,In Earth orbit,-,2026 May  4 ,1438.68,35831, ,35842, ,11.42, ,GEO/ID,29398,1.6715397868432316
3.0,GENERATED VIA SPACE-TRACK.ORG API,2026-05-06T14:46:56,18 SPCS,SBS 2,1981-096A,EARTH,TEME,UTC,SGP4,2026-05-06T11:25:50.256768,1.00111967,0.0004035,10.3286,321.7338,249.994,276.9749,0,U,12855,999,11819,0.0,-2.32e-06,0.0,42209.594,1438.389,35848.491,35814.428,PAYLOAD,LARGE,US,1981-09-24,AFETR,,5177239,322299845,0 SBS 2,1 12855U 81096A   26126.47627612 -.00000232  00000-0  00000+0 0  9994,2 12855  10.3286 321.7338 0004035 249.9940 276.9749  1.00111967118199,12855,S12855,-,12855,1981-096A,P,P,SBS 2,1981 Sep 24,S12874,IGC,US,1981 Sep 24 2333,In Earth orbit,-,2026 May  5 ,1438.382,35814, ,35848, ,10.33, ,GEO/ID,12855,1.6730166715691497
3.0,GENERATED VIA SPACE-TRACK.ORG API,2026-05-06T14:56:52,18 SPCS,TVSAT 2,1989-062A,EARTH,TEME,UTC,SGP4,2026-05-06T02:31:33.517920,0.99842513,0.000207,14.694,356.1088,199.9809,339.7509,0,U,20168,999,13408,0.0,-1.63e-06,0.0,42285.503,1442.271,35916.122,35898.615,PAYLOAD,LARGE,GER,1989-08-08,FRGUI,,5177406,322303443,0 TVSAT 2,1 20168U 89062A   26126.10524905 -.00000163  00000-0  00000+0 0  9995,2 20168  14.6940 356.1088 0002070 199.9809 339.7509  0.99842513134081,20168,S20168,-,20168,1989-062A,P,P,TV-SAT 2,1989 Aug  8,S20171,DBP,D,1989 Aug  8 2346,In Earth orbit,-,2026 May  4 ,1442.266,35898, ,35916, ,14.69, ,GEO/ID,20168,1.6737596288774204
3.0,GENERATED VIA SPACE-TRACK.ORG API,2026-05-06T07:56:53,18 SPCS,GALAXY 14,2005-030A,EARTH,TEME,UTC,SGP4,2026-05-05T21:52:26.771808,0.98914312,0.0004863,4.9213,75.5766,330.8069,255.1466,0,U,28790,999,7580,0.0,-1.19e-06,0.0,42549.626,1455.806,36192.183,36150.8,PAYLOAD,LARGE,US,2005-08-13,TTMTR,,5176815,322256168,0 GALAXY 14,1 28790U 05030A   26125.91142097 -.00000119  00000-0  00000+0 0  9994,2 28790   4.9213  75.5766 0004863 330.8069 255.1466  0.98914312 75809,28790,S28790,-,28790,2005-030A,P,P,Galaxy 14,2005 Aug 13,S28791,SESINTU,US,2005 Aug 14 0105,In Earth orbit,-,2026 May  4 ,1455.797,36150, ,36192, ,4.92, ,GEO/ID,28790,1.6741220544762399
3.0,GENERATED VIA SPACE-TRACK.ORG API,2026-05-06T14:46:56,18 SPCS,EUTE 1-F4 (ECS 4),1987-078B,EARTH,TEME,UTC,SGP4,2026-05-06T07:11:52.351008,0.98690532,0.0011764,13.8587,342.4206,37.5205,142.182,0,U,18351,999,12634,0.0,-1.46e-06,0.0,42613.923,1459.107,36285.919,36185.657,PAYLOAD,LARGE,EUTE,1987-09-16,FRGUI,,5177302,322301169,0 EUTE 1-F4 (ECS 4),1 18351U 87078B   26126.29991147 -.00000146  00000-0  00000+0 0  9998,2 18351  13.8587 342.4206 0011764  37.5205 142.1820  0.98690532126340,18351,S18351,-,18351,1987-078B,P,P,Eutelsat I F-4,1987 Sep 16,S18352,EUTSA,F,1987 Sep 16 0107,In Earth orbit,-,2026 May  4 ,1459.118,36185, ,36286, ,13.86, ,GEO/ID,18351,1.683227172458646
3.0,GENERATED VIA SPACE-TRACK.ORG API,2026-05-06T14:46:56,18 SPCS,SATCOM C1,1990-100A,EARTH,TEME,UTC,SGP4,2026-05-06T11:34:34.621824,0.99182962,0.0014497,13.4148,15.6581,18.1987,104.2646,0,U,20945,999,12657,0.0,-1.13e-06,0.0,42472.758,1451.862,36156.195,36033.05,PAYLOAD,LARGE,US,1990-11-20,FRGUI,,5177320,322301397,0 SATCOM C1,1 20945U 90100A   26126.48234516 -.00000113  00000-0  00000+0 0  9995,2 20945  13.4148  15.6581 0014497  18.1987 104.2646  0.99182962126578,20945,S20945,-,20945,1990-100A,P,P      G,Satcom C1,1990 Nov 20,S20948,SESSAP,US,1990 Nov 20 2330,In Earth orbit,-,2026 May  2 ,1451.835,36032, ,36155, ,13.41, ,GEO/ID,20945,1.6840128319257088
3.0,GENERATED VIA SPACE-TRACK.ORG API,2026-05-06T14:56:52,18 SPCS,GORIZONT 29,1993-072A,EARTH,TEME,UTC,SGP4,2026-05-06T11:27:28.545408,1.00112425,0.0011769,14.0075,347.6452,1.0509,135.7041,0,U,22907,999,11875,0.0,-1.93e-06,0.0,42209.466,1438.383,35881.007,35781.654,PAYLOAD,LARGE,CIS,1993-11-18,TTMTR,,5177490,322305490,0 GORIZONT 29,1 22907U 93072A   26126.47741372 -.00000193  00000-0  00000+0 0  9996,2 22907  14.0075 347.6452 0011769   1.0509 135.7041  1.00112425118758,22907,S22907,-,22907,1993-072A,P,P,AP-1,1993 Nov 18,S22910,ABSHK,UK,1993 Nov 18 2032?,In Earth orbit,-,2026 May  5 ,1438.379,35781, ,35880, ,14.01, ,GEO/ID,22907,1.6858557817613478
3.0,GENERATED VIA SPACE-TRACK.ORG API,2026-05-06T02:32:52,18 SPCS,ASTRA 1D,1994-070A,EARTH,TEME,UTC,SGP4,2026-05-05T20:31:38.633664,0.98949498,0.00041707,12.2324,29.0392,105.2878,80.342,0,U,23331,999,11552,0.0,2.8e-07,0.0,42539.539,1455.288,36179.146,36143.662,PAYLOAD,LARGE,SES,1994-11-01,FRGUI,,5176277,322215338,0 ASTRA 1D,1 23331U 94070A   26125.85530826  .00000028  00000-0  00000-0 0  9995,2 23331  12.2324  29.0392 0004171 105.2878  80.3420  0.98949498115528,23331,S23331,-,23331,1994-070A,P,P      G,Astra 1D,1994 Nov  1,S23332,SESSA,L,1994 Nov  1 0057,In Earth orbit,-,2026 May  4 ,1455.294,36143, ,36179, ,12.23, ,GEO/ID,23331,1.6859651220718468
